{
  "norad_id": 64516,
  "name": "KUIPER-00056",
  "history": [
    {
      "epoch": "2026-03-28T20:28:45.601248",
      "apogee_km": 629.9210598214577,
      "perigee_km": 629.1964640796723,
      "latitude_deg": -6.427461262107585,
      "longitude_deg": -6.482665279880166,
      "semi_major_axis_km": 7007.695761950565,
      "eccentricity": 5.17e-05,
      "inclination_deg": 51.9013,
      "raan_deg": 138.3778,
      "arg_perigee_deg": 95.9699,
      "mean_anomaly_deg": 264.1323,
      "mean_motion_rev_day": 14.79925672
    },
    {
      "epoch": "2026-03-29T02:57:43.924320",
      "apogee_km": 629.8990067470131,
      "perigee_km": 629.1996396519571,
      "latitude_deg": -45.178883494908916,
      "longitude_deg": 19.448804800165817,
      "semi_major_axis_km": 7007.686323199485,
      "eccentricity": 4.99e-05,
      "inclination_deg": 51.9016,
      "raan_deg": 137.1833,
      "arg_perigee_deg": 95.6924,
      "mean_anomaly_deg": 264.4095,
      "mean_motion_rev_day": 14.79928662
    }
  ]
}